start=new Date('2021-10-18T00:00:00.000Z').valueOf();
sats=[{"MEAN_MOTION":"15.06391938","PERIAPSIS":"546.262","GP_ID":"187442073","NORAD_CAT_ID":"45665","MEAN_ELEMENT_THEORY":"SGP4","OBJECT_ID":"2020-035J","EPOCH":"2021-10-17T14:59:35.596320","ECCENTRICITY":"0.00014090","APOAPSIS":"548.214","FILE":"3168566","ARG_OF_PERICENTER":"95.3022","DECAY_DATE":null,"MEAN_MOTION_DOT":"-0.00000293","EPHEMERIS_TYPE":"0","MEAN_ANOMALY":"264.8128","INCLINATION":"53.0544","CLASSIFICATION_TYPE":"U","LAUNCH_DATE":"2020-06-04","OBJECT_NAME":"STARLINK-1448","COUNTRY_CODE":"US","SITE":"AFETR","TLE_LINE2":"2 45665  53.0544  67.5483 0001409  95.3022 264.8128 15.06391938 76950","CENTER_NAME":"EARTH","PERIOD":"95.593","TLE_LINE1":"1 45665U 20035J   21290.62471755 -.00000293  00000-0 -77593-6 0  9990","BSTAR":"-0.00000077593000","TIME_SYSTEM":"UTC","REF_FRAME":"TEME","SEMIMAJOR_AXIS":"6925.373","RA_OF_ASC_NODE":"67.5483","OBJECT_TYPE":"PAYLOAD","REV_AT_EPOCH":"7695","MEAN_MOTION_DDOT":"0.0000000000000","RCS_SIZE":"LARGE","ELEMENT_SET_NO":"999"},{"MEAN_MOTION":"15.06395886","GP_ID":"187442323","PERIAPSIS":"546.251","MEAN_ELEMENT_THEORY":"SGP4","NORAD_CAT_ID":"45666","OBJECT_ID":"2020-035K","ECCENTRICITY":"0.00014080","EPOCH":"2021-10-17T15:08:51.291744","APOAPSIS":"548.201","FILE":"3168566","ARG_OF_PERICENTER":"91.8367","DECAY_DATE":null,"MEAN_MOTION_DOT":"0.00001118","MEAN_ANOMALY":"268.2783","EPHEMERIS_TYPE":"0","INCLINATION":"53.0555","CLASSIFICATION_TYPE":"U","LAUNCH_DATE":"2020-06-04","OBJECT_NAME":"STARLINK-1449","COUNTRY_CODE":"US","SITE":"AFETR","TLE_LINE2":"2 45666  53.0555  67.5191 0001408  91.8367 268.2783 15.06395886 76952","PERIOD":"95.592","CENTER_NAME":"EARTH","TLE_LINE1":"1 45666U 20035K   21290.63114921  .00001118  00000-0  93945-4 0  9993","BSTAR":"0.00009394500000","TIME_SYSTEM":"UTC","REF_FRAME":"TEME","SEMIMAJOR_AXIS":"6925.361","OBJECT_TYPE":"PAYLOAD","RA_OF_ASC_NODE":"67.5191","REV_AT_EPOCH":"7695","MEAN_MOTION_DDOT":"0.0000000000000","RCS_SIZE":"LARGE","ELEMENT_SET_NO":"999"},{"OBJECT_NAME":"STARLINK-1450","COUNTRY_CODE":"US","LAUNCH_DATE":"2020-06-04","CLASSIFICATION_TYPE":"U","INCLINATION":"53.0546","MEAN_MOTION_DOT":"0.00001138","EPHEMERIS_TYPE":"0","MEAN_ANOMALY":"254.6387","FILE":"3168566","ARG_OF_PERICENTER":"105.4730","DECAY_DATE":null,"EPOCH":"2021-10-17T15:04:54.533280","ECCENTRICITY":"0.00011620","APOAPSIS":"548.034","OBJECT_ID":"2020-035L","GP_ID":"187443075","PERIAPSIS":"546.425","NORAD_CAT_ID":"45667","MEAN_ELEMENT_THEORY":"SGP4","MEAN_MOTION":"15.06394771","ELEMENT_SET_NO":"999","RCS_SIZE":"LARGE","MEAN_MOTION_DDOT":"0.0000000000000","REV_AT_EPOCH":"7695","OBJECT_TYPE":"PAYLOAD","RA_OF_ASC_NODE":"67.5331","SEMIMAJOR_AXIS":"6925.365","TIME_SYSTEM":"UTC","REF_FRAME":"TEME","TLE_LINE1":"1 45667U 20035L   21290.62840895  .00001138  00000-0  95280-4 0  9995","BSTAR":"0.00009528000000","TLE_LINE2":"2 45667  53.0546  67.5331 0001162 105.4730 254.6387 15.06394771 76953","CENTER_NAME":"EARTH","PERIOD":"95.592","SITE":"AFETR"},{"PERIAPSIS":"546.144","GP_ID":"187443825","NORAD_CAT_ID":"45668","MEAN_ELEMENT_THEORY":"SGP4","MEAN_MOTION":"15.06398440","DECAY_DATE":null,"ARG_OF_PERICENTER":"104.3337","FILE":"3168566","EPHEMERIS_TYPE":"0","MEAN_ANOMALY":"255.7825","MEAN_MOTION_DOT":"0.00001160","OBJECT_ID":"2020-035M","APOAPSIS":"548.292","ECCENTRICITY":"0.00015510","EPOCH":"2021-10-17T16:03:16.985376","INCLINATION":"53.0561","CLASSIFICATION_TYPE":"U","COUNTRY_CODE":"US","OBJECT_NAME":"STARLINK-1451","LAUNCH_DATE":"2020-06-04","BSTAR":"0.00009678600000","TLE_LINE1":"1 45668U 20035M   21290.66894659  .00001160  00000-0  96786-4 0  9994","REF_FRAME":"TEME","TIME_SYSTEM":"UTC","SITE":"AFETR","CENTER_NAME":"EARTH","PERIOD":"95.592","TLE_LINE2":"2 45668  53.0561  67.3591 0001551 104.3337 255.7825 15.06398440 76978","SEMIMAJOR_AXIS":"6925.353","REV_AT_EPOCH":"7697","MEAN_MOTION_DDOT":"0.0000000000000","OBJECT_TYPE":"PAYLOAD","RA_OF_ASC_NODE":"67.3591","RCS_SIZE":"LARGE","ELEMENT_SET_NO":"999"},{"MEAN_MOTION":"15.06397271","GP_ID":"187442573","NORAD_CAT_ID":"45669","PERIAPSIS":"546.333","MEAN_ELEMENT_THEORY":"SGP4","EPOCH":"2021-10-17T15:31:26.315040","ECCENTRICITY":"0.00012830","APOAPSIS":"548.110","OBJECT_ID":"2020-035N","MEAN_MOTION_DOT":"0.00001171","MEAN_ANOMALY":"252.2208","EPHEMERIS_TYPE":"0","FILE":"3168566","ARG_OF_PERICENTER":"107.8921","DECAY_DATE":null,"CLASSIFICATION_TYPE":"U","INCLINATION":"53.0547","LAUNCH_DATE":"2020-06-04","OBJECT_NAME":"STARLINK-1452","COUNTRY_CODE":"US","TLE_LINE2":"2 45669  53.0547  67.4495 0001283 107.8921 252.2208 15.06397271 76963","CENTER_NAME":"EARTH","PERIOD":"95.592","SITE":"AFETR","TIME_SYSTEM":"UTC","REF_FRAME":"TEME","TLE_LINE1":"1 45669U 20035N   21290.64683235  .00001171  00000-0  97484-4 0  9997","BSTAR":"0.00009748400000","SEMIMAJOR_AXIS":"6925.357","RA_OF_ASC_NODE":"67.4495","OBJECT_TYPE":"PAYLOAD","MEAN_MOTION_DDOT":"0.0000000000000","REV_AT_EPOCH":"7696","ELEMENT_SET_NO":"999","RCS_SIZE":"LARGE"},{"RCS_SIZE":"LARGE","ELEMENT_SET_NO":"999","OBJECT_TYPE":"PAYLOAD","RA_OF_ASC_NODE":"37.4849","REV_AT_EPOCH":"7727","MEAN_MOTION_DDOT":"0.0000000000000","SEMIMAJOR_AXIS":"6925.349","SITE":"AFETR","PERIOD":"95.592","CENTER_NAME":"EARTH","TLE_LINE2":"2 45670  53.0547  37.4849 0001178  98.5680 261.5442 15.06399731 77277","BSTAR":"0.00024373000000","TLE_LINE1":"1 45670U 20035P   21290.63853708  .00003351  00000-0  24373-3 0  9990","REF_FRAME":"TEME","TIME_SYSTEM":"UTC","LAUNCH_DATE":"2020-06-04","COUNTRY_CODE":"US","OBJECT_NAME":"STARLINK-1453","INCLINATION":"53.0547","CLASSIFICATION_TYPE":"U","OBJECT_ID":"2020-035P","APOAPSIS":"548.030","ECCENTRICITY":"0.00011780","EPOCH":"2021-10-17T15:19:29.603712","DECAY_DATE":null,"ARG_OF_PERICENTER":"98.5680","FILE":"3168566","EPHEMERIS_TYPE":"0","MEAN_ANOMALY":"261.5442","MEAN_MOTION_DOT":"0.00003351","MEAN_MOTION":"15.06399731","PERIAPSIS":"546.399","GP_ID":"187442823","NORAD_CAT_ID":"45670","MEAN_ELEMENT_THEORY":"SGP4"},{"SEMIMAJOR_AXIS":"6925.385","TLE_LINE1":"1 45671U 20035Q   21290.65052577 -.00000804  00000-0 -35102-4 0  9993","BSTAR":"-0.00003510200000","TIME_SYSTEM":"UTC","REF_FRAME":"TEME","SITE":"AFETR","TLE_LINE2":"2 45671  53.0546  67.4325 0001285  96.7253 263.3882 15.06387985 76954","CENTER_NAME":"EARTH","PERIOD":"95.593","RCS_SIZE":"LARGE","ELEMENT_SET_NO":"999","REV_AT_EPOCH":"7695","MEAN_MOTION_DDOT":"0.0000000000000","OBJECT_TYPE":"PAYLOAD","RA_OF_ASC_NODE":"67.4325","FILE":"3168566","ARG_OF_PERICENTER":"96.7253","DECAY_DATE":null,"MEAN_MOTION_DOT":"-0.00000804","EPHEMERIS_TYPE":"0","MEAN_ANOMALY":"263.3882","OBJECT_ID":"2020-035Q","ECCENTRICITY":"0.00012850","EPOCH":"2021-10-17T15:36:45.426528","APOAPSIS":"548.140","NORAD_CAT_ID":"45671","GP_ID":"187443575","PERIAPSIS":"546.360","MEAN_ELEMENT_THEORY":"SGP4","MEAN_MOTION":"15.06387985","OBJECT_NAME":"STARLINK-1454","COUNTRY_CODE":"US","LAUNCH_DATE":"2020-06-04","INCLINATION":"53.0546","CLASSIFICATION_TYPE":"U"},{"CENTER_NAME":"EARTH","PERIOD":"95.592","TLE_LINE2":"2 45672  53.0557  37.3993 0001309 108.4545 251.6587 15.06401587 77381","SITE":"AFETR","REF_FRAME":"TEME","TIME_SYSTEM":"UTC","BSTAR":"0.00027301000000","TLE_LINE1":"1 45672U 20035R   21290.66065151  .00003788  00000-0  27301-3 0  9990","SEMIMAJOR_AXIS":"6925.344","RA_OF_ASC_NODE":"37.3993","OBJECT_TYPE":"PAYLOAD","MEAN_MOTION_DDOT":"0.0000000000000","REV_AT_EPOCH":"7738","ELEMENT_SET_NO":"999","RCS_SIZE":"LARGE","MEAN_MOTION":"15.06401587","PERIAPSIS":"546.302","GP_ID":"187443326","NORAD_CAT_ID":"45672","MEAN_ELEMENT_THEORY":"SGP4","APOAPSIS":"548.115","EPOCH":"2021-10-17T15:51:20.290464","ECCENTRICITY":"0.00013090","OBJECT_ID":"2020-035R","MEAN_ANOMALY":"251.6587","EPHEMERIS_TYPE":"0","MEAN_MOTION_DOT":"0.00003788","DECAY_DATE":null,"ARG_OF_PERICENTER":"108.4545","FILE":"3168566","CLASSIFICATION_TYPE":"U","INCLINATION":"53.0557","LAUNCH_DATE":"2020-06-04","COUNTRY_CODE":"US","OBJECT_NAME":"STARLINK-1455"},{"PERIOD":"95.592","CENTER_NAME":"EARTH","TLE_LINE2":"2 45673  53.0560  67.3757 0001362 102.1546 257.9596 15.06401622 76971","SITE":"AFETR","REF_FRAME":"TEME","TIME_SYSTEM":"UTC","BSTAR":"0.00012051000000","TLE_LINE1":"1 45673U 20035S   21290.66525099  .00001514  00000-0  12051-3 0  9994","SEMIMAJOR_AXIS":"6925.344","OBJECT_TYPE":"PAYLOAD","RA_OF_ASC_NODE":"67.3757","MEAN_MOTION_DDOT":"0.0000000000000","REV_AT_EPOCH":"7697","ELEMENT_SET_NO":"999","RCS_SIZE":"LARGE","MEAN_MOTION":"15.06401622","PERIAPSIS":"546.265","GP_ID":"187442074","NORAD_CAT_ID":"45673","MEAN_ELEMENT_THEORY":"SGP4","APOAPSIS":"548.152","EPOCH":"2021-10-17T15:57:57.685536","ECCENTRICITY":"0.00013620","OBJECT_ID":"2020-035S","MEAN_ANOMALY":"257.9596","EPHEMERIS_TYPE":"0","MEAN_MOTION_DOT":"0.00001514","DECAY_DATE":null,"ARG_OF_PERICENTER":"102.1546","FILE":"3168566","CLASSIFICATION_TYPE":"U","INCLINATION":"53.0560","LAUNCH_DATE":"2020-06-04","COUNTRY_CODE":"US","OBJECT_NAME":"STARLINK-1456"},{"RCS_SIZE":"LARGE","ELEMENT_SET_NO":"999","REV_AT_EPOCH":"7694","MEAN_MOTION_DDOT":"0.0000000000000","OBJECT_TYPE":"PAYLOAD","RA_OF_ASC_NODE":"67.3347","SEMIMAJOR_AXIS":"6925.366","BSTAR":"0.00011493000000","TLE_LINE1":"1 45674U 20035T   21290.67262901  .00001431  00000-0  11493-3 0  9993","REF_FRAME":"TEME","TIME_SYSTEM":"UTC","SITE":"AFETR","CENTER_NAME":"EARTH","PERIOD":"95.592","TLE_LINE2":"2 45674  53.0549  67.3347 0001370  95.6196 264.4949 15.06394332 76941","COUNTRY_CODE":"US","OBJECT_NAME":"STARLINK-1457","LAUNCH_DATE":"2020-06-04","INCLINATION":"53.0549","CLASSIFICATION_TYPE":"U","DECAY_DATE":null,"ARG_OF_PERICENTER":"95.6196","FILE":"3168566","MEAN_ANOMALY":"264.4949","EPHEMERIS_TYPE":"0","MEAN_MOTION_DOT":"0.00001431","OBJECT_ID":"2020-035T","APOAPSIS":"548.180","EPOCH":"2021-10-17T16:08:35.146464","ECCENTRICITY":"0.00013700","PERIAPSIS":"546.282","GP_ID":"187442324","NORAD_CAT_ID":"45674","MEAN_ELEMENT_THEORY":"SGP4","MEAN_MOTION":"15.06394332"}];
